[{"OBJECT_NAME":"STARLINK-30524","OBJECT_ID":"2023-151B","EPOCH":"2026-03-09T03:56:32.838144","MEAN_MOTION":15.2677762,"ECCENTRICITY":0.00010457,"INCLINATION":43,"RA_OF_ASC_NODE":339.1883,"ARG_OF_PERICENTER":274.6135,"MEAN_ANOMALY":85.4596,"EPHEMERIS_TYPE":0,"CLASSIFICATION_TYPE":"U","NORAD_CAT_ID":57965,"ELEMENT_SET_NO":999,"REV_AT_EPOCH":13568,"BSTAR":0.00027520135,"MEAN_MOTION_DOT":7.138e-5,"MEAN_MOTION_DDOT":0},{"OBJECT_NAME":"TIANMU-1 18","OBJECT_ID":"2024-004D","EPOCH":"2026-03-09T22:24:47.717568","MEAN_MOTION":15.25857469,"ECCENTRICITY":0.00038525,"INCLINATION":97.4666,"RA_OF_ASC_NODE":255.1597,"ARG_OF_PERICENTER":0.8806,"MEAN_ANOMALY":359.2438,"EPHEMERIS_TYPE":0,"CLASSIFICATION_TYPE":"U","NORAD_CAT_ID":58703,"ELEMENT_SET_NO":999,"REV_AT_EPOCH":12063,"BSTAR":0.00032272775,"MEAN_MOTION_DOT":8.193e-5,"MEAN_MOTION_DDOT":0}]
